start=new Date('2022-02-27T00:00:00.000Z').valueOf();
sats=[{"EPHEMERIS_TYPE":"0","TLE_LINE1":"1 48649U 21044M   22057.85457277  .00003232  00000-0  23574-3 0  9997","MEAN_ELEMENT_THEORY":"SGP4","RCS_SIZE":"LARGE","REV_AT_EPOCH":"4186","LAUNCH_DATE":"2021-05-26","ARG_OF_PERICENTER":"62.6127","MEAN_MOTION":"15.06410165","CLASSIFICATION_TYPE":"U","MEAN_MOTION_DDOT":"0.0000000000000","CENTER_NAME":"EARTH","REF_FRAME":"TEME","COUNTRY_CODE":"US","TLE_LINE2":"2 48649  53.0530 248.9360 0001754  62.6127 297.5041 15.06410165 41868","EPOCH":"2022-02-26T20:30:35.087328","RA_OF_ASC_NODE":"248.9360","OBJECT_TYPE":"PAYLOAD","DECAY_DATE":null,"MEAN_MOTION_DOT":"0.00003232","SEMIMAJOR_AXIS":"6925.317","ELEMENT_SET_NO":"999","OBJECT_NAME":"STARLINK-2673","SITE":"AFETR","BSTAR":"0.00023574000000","INCLINATION":"53.0530","PERIOD":"95.591","PERIAPSIS":"545.968","MEAN_ANOMALY":"297.5041","GP_ID":"197162360","TIME_SYSTEM":"UTC","NORAD_CAT_ID":"48649","ECCENTRICITY":"0.00017540","APOAPSIS":"548.397","OBJECT_ID":"2021-044M","FILE":"3327391"},{"EPHEMERIS_TYPE":"0","TLE_LINE1":"1 48650U 21044N   22057.85087392  .00001403  00000-0  11307-3 0  9995","RCS_SIZE":"LARGE","REV_AT_EPOCH":"4186","MEAN_ELEMENT_THEORY":"SGP4","LAUNCH_DATE":"2021-05-26","ARG_OF_PERICENTER":"89.4142","MEAN_MOTION":"15.06397873","COUNTRY_CODE":"US","MEAN_MOTION_DDOT":"0.0000000000000","CLASSIFICATION_TYPE":"U","CENTER_NAME":"EARTH","REF_FRAME":"TEME","TLE_LINE2":"2 48650  53.0549 248.9609 0001273  89.4142 270.6993 15.06397873 41864","EPOCH":"2022-02-26T20:25:15.506688","DECAY_DATE":null,"RA_OF_ASC_NODE":"248.9609","OBJECT_TYPE":"PAYLOAD","MEAN_MOTION_DOT":"0.00001403","SEMIMAJOR_AXIS":"6925.355","OBJECT_NAME":"STARLINK-2672","ELEMENT_SET_NO":"999","SITE":"AFETR","BSTAR":"0.00011307000000","PERIAPSIS":"546.338","MEAN_ANOMALY":"270.6993","PERIOD":"95.592","INCLINATION":"53.0549","TIME_SYSTEM":"UTC","GP_ID":"197160612","ECCENTRICITY":"0.00012730","NORAD_CAT_ID":"48650","APOAPSIS":"548.102","OBJECT_ID":"2021-044N","FILE":"3327391"},{"MEAN_MOTION_DDOT":"0.0000000000000","CENTER_NAME":"EARTH","CLASSIFICATION_TYPE":"U","REF_FRAME":"TEME","COUNTRY_CODE":"US","MEAN_MOTION":"15.06404038","TLE_LINE2":"2 48651  53.0558 248.9747 0001595  80.9657 279.1512 15.06404038 41865","EPOCH":"2022-02-26T20:19:56.568000","TLE_LINE1":"1 48651U 21044P   22057.84718250  .00002082  00000-0  15858-3 0  9998","EPHEMERIS_TYPE":"0","ARG_OF_PERICENTER":"80.9657","LAUNCH_DATE":"2021-05-26","MEAN_ELEMENT_THEORY":"SGP4","RCS_SIZE":"LARGE","REV_AT_EPOCH":"4186","GP_ID":"197160862","TIME_SYSTEM":"UTC","APOAPSIS":"548.306","FILE":"3327391","OBJECT_ID":"2021-044P","ECCENTRICITY":"0.00015950","NORAD_CAT_ID":"48651","OBJECT_NAME":"STARLINK-2731","SEMIMAJOR_AXIS":"6925.336","MEAN_MOTION_DOT":"0.00002082","ELEMENT_SET_NO":"999","SITE":"AFETR","RA_OF_ASC_NODE":"248.9747","OBJECT_TYPE":"PAYLOAD","DECAY_DATE":null,"INCLINATION":"53.0558","PERIOD":"95.592","PERIAPSIS":"546.097","MEAN_ANOMALY":"279.1512","BSTAR":"0.00015858000000"},{"OBJECT_ID":"2021-044Q","FILE":"3327391","APOAPSIS":"548.281","NORAD_CAT_ID":"48652","ECCENTRICITY":"0.00015060","GP_ID":"197162114","TIME_SYSTEM":"UTC","PERIOD":"95.593","INCLINATION":"53.0554","MEAN_ANOMALY":"278.0501","PERIAPSIS":"546.195","BSTAR":"-0.00000045644000","SITE":"AFETR","ELEMENT_SET_NO":"999","SEMIMAJOR_AXIS":"6925.373","MEAN_MOTION_DOT":"-0.00000288","OBJECT_NAME":"STARLINK-2727","OBJECT_TYPE":"PAYLOAD","RA_OF_ASC_NODE":"248.9922","DECAY_DATE":null,"EPOCH":"2022-02-26T20:14:39.361632","TLE_LINE2":"2 48652  53.0554 248.9922 0001506  82.0658 278.0501 15.06391881 41860","REF_FRAME":"TEME","CENTER_NAME":"EARTH","MEAN_MOTION_DDOT":"0.0000000000000","CLASSIFICATION_TYPE":"U","COUNTRY_CODE":"US","MEAN_MOTION":"15.06391881","LAUNCH_DATE":"2021-05-26","ARG_OF_PERICENTER":"82.0658","MEAN_ELEMENT_THEORY":"SGP4","REV_AT_EPOCH":"4186","RCS_SIZE":"LARGE","TLE_LINE1":"1 48652U 21044Q   22057.84351113 -.00000288  00000-0 -45644-6 0  9997","EPHEMERIS_TYPE":"0"},{"REF_FRAME":"TEME","MEAN_MOTION_DDOT":"0.0000000000000","CLASSIFICATION_TYPE":"U","CENTER_NAME":"EARTH","COUNTRY_CODE":"US","MEAN_MOTION":"15.06394624","EPOCH":"2022-02-26T20:09:20.466144","TLE_LINE2":"2 48653  53.0548 249.0063 0001472  74.7104 285.4047 15.06394624 41863","TLE_LINE1":"1 48653U 21044R   22057.83982021  .00001359  00000-0  11012-3 0  9992","EPHEMERIS_TYPE":"0","ARG_OF_PERICENTER":"74.7104","LAUNCH_DATE":"2021-05-26","MEAN_ELEMENT_THEORY":"SGP4","REV_AT_EPOCH":"4186","RCS_SIZE":"LARGE","GP_ID":"197161860","TIME_SYSTEM":"UTC","OBJECT_ID":"2021-044R","FILE":"3327391","APOAPSIS":"548.249","ECCENTRICITY":"0.00014720","NORAD_CAT_ID":"48653","SITE":"AFETR","SEMIMAJOR_AXIS":"6925.365","MEAN_MOTION_DOT":"0.00001359","OBJECT_NAME":"STARLINK-2720","ELEMENT_SET_NO":"999","OBJECT_TYPE":"PAYLOAD","RA_OF_ASC_NODE":"249.0063","DECAY_DATE":null,"INCLINATION":"53.0548","PERIOD":"95.592","MEAN_ANOMALY":"285.4047","PERIAPSIS":"546.211","BSTAR":"0.00011012000000"},{"REV_AT_EPOCH":"4187","RCS_SIZE":"LARGE","MEAN_ELEMENT_THEORY":"SGP4","LAUNCH_DATE":"2021-05-26","ARG_OF_PERICENTER":"80.3511","EPHEMERIS_TYPE":"0","TLE_LINE1":"1 48654U 21044S   22057.90248529  .00001567  00000-0  12412-3 0  9995","EPOCH":"2022-02-26T21:39:34.729056","TLE_LINE2":"2 48654  53.0541 248.7310 0001670  80.3511 279.7667 15.06396225 41877","MEAN_MOTION":"15.06396225","COUNTRY_CODE":"US","REF_FRAME":"TEME","MEAN_MOTION_DDOT":"0.0000000000000","CLASSIFICATION_TYPE":"U","CENTER_NAME":"EARTH","BSTAR":"0.00012412000000","MEAN_ANOMALY":"279.7667","PERIAPSIS":"546.069","PERIOD":"95.592","INCLINATION":"53.0541","DECAY_DATE":null,"OBJECT_TYPE":"PAYLOAD","RA_OF_ASC_NODE":"248.7310","SITE":"AFETR","SEMIMAJOR_AXIS":"6925.360","OBJECT_NAME":"STARLINK-2651","MEAN_MOTION_DOT":"0.00001567","ELEMENT_SET_NO":"999","NORAD_CAT_ID":"48654","ECCENTRICITY":"0.00016700","OBJECT_ID":"2021-044S","FILE":"3327391","APOAPSIS":"548.382","TIME_SYSTEM":"UTC","GP_ID":"197161113"},{"NORAD_CAT_ID":"48655","ECCENTRICITY":"0.00015130","FILE":"3327391","OBJECT_ID":"2021-044T","APOAPSIS":"548.268","TIME_SYSTEM":"UTC","GP_ID":"197161363","BSTAR":"-0.00000405110000","MEAN_ANOMALY":"280.2725","PERIAPSIS":"546.172","PERIOD":"95.592","INCLINATION":"53.0552","DECAY_DATE":null,"OBJECT_TYPE":"PAYLOAD","RA_OF_ASC_NODE":"249.0499","SITE":"AFETR","SEMIMAJOR_AXIS":"6925.355","MEAN_MOTION_DOT":"-0.00000342","ELEMENT_SET_NO":"999","OBJECT_NAME":"STARLINK-2657","EPOCH":"2022-02-26T19:58:43.478688","TLE_LINE2":"2 48655  53.0552 249.0499 0001513  79.8435 280.2725 15.06397806 41863","MEAN_MOTION":"15.06397806","COUNTRY_CODE":"US","REF_FRAME":"TEME","CENTER_NAME":"EARTH","MEAN_MOTION_DDOT":"0.0000000000000","CLASSIFICATION_TYPE":"U","REV_AT_EPOCH":"4186","RCS_SIZE":"LARGE","MEAN_ELEMENT_THEORY":"SGP4","LAUNCH_DATE":"2021-05-26","ARG_OF_PERICENTER":"79.8435","EPHEMERIS_TYPE":"0","TLE_LINE1":"1 48655U 21044T   22057.83244767 -.00000342  00000-0 -40511-5 0  9993"},{"EPOCH":"2022-02-26T19:53:24.843264","TLE_LINE2":"2 48656  53.0549 249.0575 0001398  77.2876 282.8269 15.06392748 41868","REF_FRAME":"TEME","CLASSIFICATION_TYPE":"U","MEAN_MOTION_DDOT":"0.0000000000000","CENTER_NAME":"EARTH","COUNTRY_CODE":"US","MEAN_MOTION":"15.06392748","LAUNCH_DATE":"2021-05-26","ARG_OF_PERICENTER":"77.2876","MEAN_ELEMENT_THEORY":"SGP4","REV_AT_EPOCH":"4186","RCS_SIZE":"LARGE","TLE_LINE1":"1 48656U 21044U   22057.82875976 -.00000380  00000-0 -66345-5 0  9990","EPHEMERIS_TYPE":"0","FILE":"3327391","OBJECT_ID":"2021-044U","APOAPSIS":"548.204","ECCENTRICITY":"0.00013980","NORAD_CAT_ID":"48656","GP_ID":"197161614","TIME_SYSTEM":"UTC","INCLINATION":"53.0549","PERIOD":"95.593","MEAN_ANOMALY":"282.8269","PERIAPSIS":"546.268","BSTAR":"-0.00000663450000","SITE":"AFETR","SEMIMAJOR_AXIS":"6925.371","MEAN_MOTION_DOT":"-0.00000380","ELEMENT_SET_NO":"999","OBJECT_NAME":"STARLINK-2701","OBJECT_TYPE":"PAYLOAD","RA_OF_ASC_NODE":"249.0575","DECAY_DATE":null},{"GP_ID":"197162361","TIME_SYSTEM":"UTC","APOAPSIS":"548.202","OBJECT_ID":"2021-044V","FILE":"3327391","ECCENTRICITY":"0.00014210","NORAD_CAT_ID":"48657","OBJECT_NAME":"STARLINK-2734","SEMIMAJOR_AXIS":"6925.353","MEAN_MOTION_DOT":"0.00002303","ELEMENT_SET_NO":"999","SITE":"AFETR","RA_OF_ASC_NODE":"249.0763","OBJECT_TYPE":"PAYLOAD","DECAY_DATE":null,"PERIOD":"95.592","INCLINATION":"53.0551","PERIAPSIS":"546.234","MEAN_ANOMALY":"282.2348","BSTAR":"0.00017343000000","MEAN_MOTION_DDOT":"0.0000000000000","CENTER_NAME":"EARTH","CLASSIFICATION_TYPE":"U","REF_FRAME":"TEME","COUNTRY_CODE":"US","MEAN_MOTION":"15.06398427","TLE_LINE2":"2 48657  53.0551 249.0763 0001421  77.8800 282.2348 15.06398427 41863","EPOCH":"2022-02-26T19:48:06.030720","TLE_LINE1":"1 48657U 21044V   22057.82506980  .00002303  00000-0  17343-3 0  9994","EPHEMERIS_TYPE":"0","LAUNCH_DATE":"2021-05-26","ARG_OF_PERICENTER":"77.8800","MEAN_ELEMENT_THEORY":"SGP4","RCS_SIZE":"LARGE","REV_AT_EPOCH":"4186"},{"EPHEMERIS_TYPE":"0","TLE_LINE1":"1 48658U 21044W   22057.82139041 -.00000043  00000-0  16043-4 0  9992","MEAN_ELEMENT_THEORY":"SGP4","REV_AT_EPOCH":"4186","RCS_SIZE":"LARGE","ARG_OF_PERICENTER":"69.0775","LAUNCH_DATE":"2021-05-26","MEAN_MOTION":"15.06395308","REF_FRAME":"TEME","CENTER_NAME":"EARTH","MEAN_MOTION_DDOT":"0.0000000000000","CLASSIFICATION_TYPE":"U","COUNTRY_CODE":"US","EPOCH":"2022-02-26T19:42:48.131424","TLE_LINE2":"2 48658  53.0536 249.1029 0001546  69.0775 291.0380 15.06395308 41864","OBJECT_TYPE":"PAYLOAD","RA_OF_ASC_NODE":"249.1029","DECAY_DATE":null,"SITE":"AFETR","SEMIMAJOR_AXIS":"6925.363","OBJECT_NAME":"STARLINK-2647","MEAN_MOTION_DOT":"-0.00000043","ELEMENT_SET_NO":"999","BSTAR":"0.00001604300000","PERIOD":"95.592","INCLINATION":"53.0536","MEAN_ANOMALY":"291.0380","PERIAPSIS":"546.157","GP_ID":"197160613","TIME_SYSTEM":"UTC","ECCENTRICITY":"0.00015460","NORAD_CAT_ID":"48658","OBJECT_ID":"2021-044W","FILE":"3327391","APOAPSIS":"548.299"}];
